[{"OBJECT_NAME":"STARLINK-31293","OBJECT_ID":"2024-027X","EPOCH":"2026-03-09T22:01:04.989504","MEAN_MOTION":15.30219237,"ECCENTRICITY":9.693e-5,"INCLINATION":53.1622,"RA_OF_ASC_NODE":308.5279,"ARG_OF_PERICENTER":86.4007,"MEAN_ANOMALY":273.7105,"EPHEMERIS_TYPE":0,"CLASSIFICATION_TYPE":"U","NORAD_CAT_ID":58952,"ELEMENT_SET_NO":999,"REV_AT_EPOCH":11736,"BSTAR":-0.00023460942,"MEAN_MOTION_DOT":-7.305e-5,"MEAN_MOTION_DDOT":0},{"OBJECT_NAME":"OBJECT D","OBJECT_ID":"2021-102D","EPOCH":"2026-03-09T14:47:14.426880","MEAN_MOTION":15.2846442,"ECCENTRICITY":0.0009157,"INCLINATION":97.3342,"RA_OF_ASC_NODE":112.2633,"ARG_OF_PERICENTER":187.6206,"MEAN_ANOMALY":172.4897,"EPHEMERIS_TYPE":0,"CLASSIFICATION_TYPE":"U","NORAD_CAT_ID":49398,"ELEMENT_SET_NO":999,"REV_AT_EPOCH":23880,"BSTAR":0.00046011,"MEAN_MOTION_DOT":0.00012697,"MEAN_MOTION_DDOT":0}]
